MEAN_MOTION;ECCENTRICITY;INCLINATION;RA_OF_ASC_NODE;ARG_OF_PERICENTER;MEAN_ANOMALY;BSTAR;MEAN_MOTION_DOT;MEAN_MOTION_DDOT;TYPE
14.3291936;0.0012877;98.6398;17.0504;70.8303;289.4273;1.3423E-5;-8.0E-8;0;Amateur
14.32919404;0.0012869;98.6398;17.6074;69.3662;290.89;1.2247E-5;-1.1E-7;0;Amateur
14.32919463;0.0012862;98.6399;18.0948;68.0037;292.2512;1.3378E-5;-8.0E-8;0;Amateur
14.3291955;0.0012844;98.64;19.0001;65.5447;294.7075;1.4113E-5;-6.0E-8;0;Amateur
14.32919561;0.0012841;98.64;19.0697;65.3591;294.8929;1.4073E-5;-6.0E-8;0;Amateur
14.32919603;0.001283;98.6401;19.6964;63.6795;296.5705;1.351E-5;-7.0E-8;0;Amateur
14.3291961;0.0012819;98.6401;19.9749;62.8894;297.3596;1.1766E-5;-1.2E-7;0;Amateur
14.3291966;0.0012809;98.6402;20.4623;61.5782;298.6691;1.166E-5;-1.3E-7;0;Amateur
14.32919836;0.001278;98.6404;21.9941;57.434;302.8076;1.5792E-5;-1.0E-8;0;Amateur
14.32919909;0.0012748;98.6405;22.969;54.7927;305.4448;1.6171E-5;0;0;Amateur
14.32919967;0.0012722;98.6406;23.5957;53.0731;307.1616;1.6859E-5;2.0E-8;0;Amateur
14.32920019;0.001271;98.6406;24.0136;51.9188;308.314;1.8254E-5;5.0E-8;0;Amateur
14.32920122;0.0012682;98.6408;24.9886;49.2256;311.0026;2.0769E-5;1.2E-7;0;Amateur
14.32920253;0.001263;98.6409;26.0333;46.3747;313.8482;2.2456E-5;1.7E-7;0;Amateur
14.32920269;0.0012623;98.641;26.3118;45.611;314.6106;2.2012E-5;1.6E-7;0;Amateur
14.32920356;0.0012587;98.6411;27.0778;43.4763;316.7411;2.2274E-5;1.6E-7;0;Amateur
14.32920462;0.0012546;98.6411;28.1224;40.6034;319.6083;2.249E-5;1.7E-7;0;Amateur
14.32920516;0.0012522;98.6412;28.6795;39.0522;321.1563;2.1979E-5;1.6E-7;0;Amateur
14.32920512;0.0012518;98.6412;28.7492;38.8589;321.3492;2.1414E-5;1.4E-7;0;Amateur
14.32920548;0.0012506;98.6412;28.9581;38.2673;321.9396;2.1206E-5;1.4E-7;0;Amateur
14.32920598;0.0012473;98.6413;29.7242;36.1499;324.0526;1.8164E-5;5.0E-8;0;Amateur
14.32920614;0.0012461;98.6413;29.9331;35.5467;324.6544;1.7014E-5;2.0E-8;0;Amateur
14.32920626;0.0012457;98.6413;30.0027;35.3537;324.847;1.703E-5;2.0E-8;0;Amateur
14.32920674;0.0012436;98.6414;30.4902;34.0062;326.1916;1.6993E-5;2.0E-8;0;Amateur
14.32920712;0.0012413;98.6414;30.9777;32.6389;327.5559;1.684E-5;2.0E-8;0;Amateur
14.32920802;0.0012364;98.6415;31.9527;29.9186;330.2703;1.582E-5;-1.0E-8;0;Amateur
14.329208;0.0012353;98.6416;32.2313;29.1718;331.0153;1.4046E-5;-6.0E-8;0;Amateur
14.32920863;0.001231;98.6417;32.9974;26.9711;333.2111;1.26E-5;-1.0E-7;0;Amateur
14.32920899;0.0012282;98.6418;33.5546;25.4064;334.7721;1.2355E-5;-1.1E-7;0;Amateur
14.32920917;0.001226;98.6418;33.9724;24.2291;335.9467;1.1955E-5;-1.2E-7;0;Amateur
14.32920952;0.0012228;98.642;34.5993;22.4531;337.7186;1.1881E-5;-1.2E-7;0;Amateur
14.32920977;0.001221;98.642;34.9475;21.4398;338.7295;1.1725E-5;-1.2E-7;0;Amateur
14.32921012;0.0012173;98.6422;35.5744;19.6631;340.502;1.0679E-5;-1.5E-7;0;Amateur
14.32921043;0.0012124;98.6423;36.5494;16.8867;343.2718;1.0166E-5;-1.7E-7;0;Amateur
14.32921059;0.0012107;98.6424;36.9673;15.6838;344.4719;1.0641E-5;-1.5E-7;0;Amateur
14.3292109;0.0012074;98.6424;37.594;13.9372;346.2143;1.1568E-5;-1.3E-7;0;Amateur
14.32921123;0.0012052;98.6424;37.9423;12.9016;347.2474;1.208E-5;-1.1E-7;0;Amateur
14.32921178;0.001204;98.6425;38.5693;11.1021;349.0426;1.2483E-5;-1.0E-7;0;Amateur
14.32921208;0.0012015;98.6425;38.9872;9.8699;350.2719;1.2969E-5;-9.0E-8;0;Amateur
14.32921208;0.0012006;98.6426;39.0569;9.677;350.4643;1.29E-5;-9.0E-8;0;Amateur
14.32921312;0.0011945;98.6426;40.0321;6.8226;353.3118;1.6374E-5;0;0;Amateur
14.32921283;0.0011927;98.6427;40.241;6.2648;353.8682;1.5405E-5;-2.0E-8;0;Amateur
14.32921356;0.0011885;98.6427;40.9376;4.2092;355.919;1.6939E-5;2.0E-8;0;Amateur
14.32921392;0.0011844;98.6428;41.5645;2.4132;357.7107;1.6123E-5;0;0;Amateur
14.32921432;0.0011819;98.6428;41.9824;1.1732;358.9477;1.6391E-5;0;0;Amateur
14.32921481;0.0011782;98.6428;42.5396;359.566;0.5512;1.6357E-5;0;0;Amateur
14.3292159;0.0011726;98.6429;43.5149;356.7265;3.384;1.8444E-5;6.0E-8;0;Amateur
14.32921634;0.0011702;98.6429;43.9328;355.4717;4.6359;1.8619E-5;6.0E-8;0;Amateur
14.32921736;0.0011662;98.643;44.5597;353.6368;6.4666;1.9045E-5;8.0E-8;0;Amateur
14.32921799;0.0011639;98.643;44.9776;352.359;7.7414;1.911E-5;8.0E-8;0;Amateur
14.32921905;0.0011581;98.6432;45.9529;349.4765;10.6175;1.8313E-5;5.0E-8;0;Amateur
14.3292192;0.0011573;98.6432;46.0225;349.2428;10.8506;1.8493E-5;6.0E-8;0;Amateur
14.32922004;0.0011514;98.6433;46.9281;346.539;13.5485;1.7353E-5;3.0E-8;0;Amateur
14.3292205;0.0011474;98.6434;47.555;344.6464;15.437;1.5244E-5;-3.0E-8;0;Amateur
14.32922087;0.0011455;98.6434;47.9033;343.5732;16.5079;1.4773E-5;-4.0E-8;0;Amateur
14.32922172;0.0011398;98.6436;48.9483;340.3991;19.6753;1.2865E-5;-9.0E-8;0;Amateur
14.32922289;0.0011336;98.6437;49.9932;337.2451;22.8229;1.425E-5;-6.0E-8;0;Amateur
14.32922382;0.0011276;98.6438;50.8989;334.4986;25.564;1.507E-5;-3.0E-8;0;Amateur
14.32922447;0.0011239;98.6439;51.5259;332.5722;27.4867;1.5409E-5;-2.0E-8;0;Amateur
14.32922496;0.0011219;98.644;51.9438;331.2845;28.772;1.674E-5;1.0E-8;0;Amateur
14.32922602;0.0011159;98.644;52.9192;328.2877;31.7634;1.9449E-5;9.0E-8;0;Amateur
14.32922686;0.0011108;98.6441;53.8945;325.2427;34.803;2.009E-5;1.0E-7;0;Amateur
14.32922702;0.00111;98.6442;54.1035;324.6079;35.4367;2.0038E-5;1.0E-7;0;Amateur
14.3292277;0.0011067;98.6442;54.9396;321.9842;38.056;1.964E-5;9.0E-8;0;Amateur
14.32922831;0.0011038;98.6442;55.4969;320.2544;39.783;2.0951E-5;1.3E-7;0;Amateur
14.32922868;0.0011017;98.6443;55.9149;318.9381;41.0972;2.1398E-5;1.4E-7;0;Amateur
14.32922933;0.0010986;98.6443;56.5419;316.9698;43.0626;2.1841E-5;1.5E-7;0;Amateur
14.32922938;0.0010972;98.6443;56.751;316.3015;43.7299;2.1382E-5;1.4E-7;0;Amateur
14.3292305;0.0010939;98.6444;57.5174;313.8401;46.1878;2.0919E-5;1.3E-7;0;Amateur
14.32923099;0.0010921;98.6444;57.9354;312.5065;47.5196;2.0903E-5;1.3E-7;0;Amateur
14.32923216;0.0010878;98.6445;58.9804;309.1906;50.8311;2.0918E-5;1.3E-7;0;Amateur
14.32923216;0.0010878;98.6445;58.9804;309.1906;50.8311;2.0918E-5;1.3E-7;0;Amateur
14.32923295;0.0010845;98.6446;59.8861;306.2836;53.7345;1.9219E-5;8.0E-8;0;Amateur
14.32923287;0.0010828;98.6447;60.1648;305.4076;54.6096;1.7405E-5;3.0E-8;0;Amateur
14.3292336;0.00108;98.6448;61.0009;302.7421;57.2721;1.5148E-5;-3.0E-8;0;Amateur
14.32923383;0.0010783;98.6448;61.4886;301.1645;58.8481;1.3927E-5;-7.0E-8;0;Amateur
14.32923414;0.0010768;98.6449;61.9764;299.59;60.4211;1.3369E-5;-8.0E-8;0;Amateur
14.32923424;0.0010745;98.645;62.6034;297.5588;62.4504;1.1869E-5;-1.2E-7;0;Amateur
14.3292345;0.001074;98.645;62.8821;296.6536;63.3547;1.128E-5;-1.4E-7;0;Amateur
14.32923472;0.0010711;98.6452;63.9273;293.2558;66.7498;7.7164E-6;-2.4E-7;0;Amateur
14.32923506;0.0010697;98.6453;64.415;291.6805;68.324;8.0279E-6;-2.3E-7;0;Amateur
14.32923518;0.0010684;98.6454;64.9028;290.105;69.8984;8.2066E-6;-2.2E-7;0;Amateur
14.32923529;0.0010675;98.6454;65.1815;289.2122;70.7907;8.8577E-6;-2.0E-7;0;Amateur
14.32923546;0.0010666;98.6455;65.5299;288.0681;71.9341;8.8152E-6;-2.1E-7;0;Amateur
14.32923565;0.0010663;98.6455;65.8783;286.9361;73.0653;8.7604E-6;-2.1E-7;0;Amateur
14.32923596;0.001065;98.6456;66.5054;284.8803;75.1201;8.3621E-6;-2.2E-7;0;Amateur
14.32923615;0.0010644;98.6456;66.9235;283.5203;76.4794;8.393E-6;-2.2E-7;0;Amateur
14.32923687;0.0010625;98.6457;67.899;280.3383;79.6603;1.1113E-5;-1.4E-7;0;Amateur
14.32923712;0.0010627;98.6457;67.9687;280.0932;79.9052;1.2172E-5;-1.1E-7;0;Amateur
14.32923764;0.0010612;98.6458;68.8746;277.105;82.8927;1.3626E-5;-7.0E-8;0;Amateur
14.32923816;0.0010607;98.6458;69.5017;275.018;84.9792;1.434E-5;-5.0E-8;0;Amateur
14.3292384;0.0010602;98.6458;69.9895;273.4337;86.5634;1.4205E-5;-6.0E-8;0;Amateur
14.32923939;0.0010597;98.6459;71.4529;268.6456;91.3513;1.5788E-5;-1.0E-8;0;Amateur
14.32923959;0.0010597;98.6459;71.8013;267.5007;92.4964;1.6019E-5;-1.0E-8;0;Amateur
14.32924028;0.0010592;98.646;72.4981;265.1928;94.8046;1.573E-5;-2.0E-8;0;Amateur
14.32924074;0.0010597;98.646;72.9859;263.5876;96.4101;1.5539E-5;-2.0E-8;0;Amateur
14.32924124;0.0010595;98.646;73.4738;261.9758;98.0224;1.5359E-5;-3.0E-8;0;Amateur
14.32924169;0.00106;98.6461;73.8919;260.6336;99.3649;1.5772E-5;-2.0E-8;0;Amateur
14.32924205;0.0010602;98.6461;73.9616;260.4041;99.5945;1.7227E-5;2.0E-8;0;Amateur
14.3292429;0.0010601;98.6461;74.6584;258.0951;101.9044;1.8667E-5;6.0E-8;0;Amateur
14.32924307;0.0010604;98.6461;74.8675;257.4124;102.5874;1.7356E-5;3.0E-8;0;Amateur
14.32924333;0.0010605;98.6462;75.1462;256.4912;103.5091;1.7036E-5;2.0E-8;0;Amateur
14.32924444;0.0010615;98.6463;75.9825;253.7815;106.2201;1.6032E-5;-1.0E-8;0;Amateur
14.32924582;0.0010623;98.6463;76.749;251.2811;108.722;1.882E-5;7.0E-8;0;Amateur
14.32924574;0.0010629;98.6464;76.9581;250.603;109.4005;1.6211E-5;0;0;Amateur
14.32924663;0.0010647;98.6465;77.9338;247.4131;112.5927;1.5452E-5;-2.0E-8;0;Amateur
14.32924671;0.0010647;98.6465;78.1428;246.7153;113.2911;1.5232E-5;-3.0E-8;0;Amateur
14.3292471;0.0010656;98.6465;78.4913;245.5777;114.4296;1.4712E-5;-4.0E-8;0;Amateur
14.32924827;0.0010674;98.6466;79.4669;242.3683;117.6418;1.4558E-5;-5.0E-8;0;Amateur
14.32924864;0.0010692;98.6467;79.9547;240.8022;119.2093;1.4324E-5;-5.0E-8;0;Amateur
14.32924954;0.0010714;98.6468;80.8608;237.8756;122.1388;1.6171E-5;0;0;Amateur
14.32924962;0.0010716;98.6468;80.9305;237.6463;122.3684;1.6175E-5;0;0;Amateur
14.32925044;0.0010744;98.6468;81.8364;234.7422;125.2757;1.6836E-5;1.0E-8;0;Amateur
14.32925066;0.0010752;98.6469;82.1152;233.8205;126.1984;1.698E-5;2.0E-8;0;Amateur
14.32925109;0.0010765;98.6469;82.4637;232.7093;127.311;1.7185E-5;2.0E-8;0;Amateur
14.32925155;0.0010785;98.6469;82.9515;231.1658;128.8564;1.7963E-5;4.0E-8;0;Amateur
14.3292522;0.0010799;98.647;83.4394;229.5754;130.4488;1.9924E-5;1.0E-7;0;Amateur
14.32925261;0.0010817;98.647;83.9272;228.0177;132.0086;2.0391E-5;1.1E-7;0;Amateur
14.32925312;0.001084;98.647;84.4848;226.2323;133.7964;2.0858E-5;1.2E-7;0;Amateur
14.32925413;0.0010895;98.6471;85.809;222.0196;138.0152;1.9106E-5;8.0E-8;0;Amateur
14.32925425;0.0010898;98.6471;85.8787;221.7971;138.2382;1.9183E-5;8.0E-8;0;Amateur
